GLOBALSTAR M024         
1 25883U 99043A   25337.76860083 -.00000131  00000+0 -23458-2 0  9999
2 25883  52.0047 357.9860 0001396  15.1406 156.8744 11.10167664133690
GLOBALSTAR M027         
1 25884U 99043B   25337.57314383 -.00000104  00000+0 -15431-2 0  9998
2 25884  52.0217  81.2064 0020933 263.5488  96.2922 11.04372574159953
GLOBALSTAR M054         
1 25885U 99043C   25337.54710551 -.00000020  00000+0  13185-2 0  9993
2 25885  52.0099 180.1440 0006017 102.9778 279.9429 11.39224517138358
GLOBALSTAR M053         
1 25886U 99043D   25337.72089389 -.00000074  00000+0 -15675-3 0  9999
2 25886  51.9949 136.2269 0003602  32.2371 341.3906 11.27668935138574
GLOBALSTAR M058         
1 25907U 99049A   25337.85994531 -.00000011  00000+0  98348-3 0  9995
2 25907  51.9966  16.1004 0001824 230.5993 129.4680 11.93206671561793
GLOBALSTAR M050         
1 25908U 99049B   25337.52550139  .00000028  00000+0  13081-2 0  9999
2 25908  52.0015  12.0182 0008960  10.6118 157.0722 12.07461241168640
GLOBALSTAR M033         
1 25909U 99049C   25338.14797249 -.00000054  00000+0  36357-3 0  9996
2 25909  51.9903 230.4037 0013210 255.2799 104.6584 12.20293998556491
GLOBALSTAR M055         
1 25910U 99049D   25338.09299503 -.00000045  00000+0  42555-3 0  9999
2 25910  52.0009 233.0320 0007541 117.7951 242.3666 12.29437165189182
